OSCAR 7 (AO-7)          
1 07530U 74089B   26156.01521735 -.00000047  00000+0 -54489-5 0  9994
2 07530 101.9901 169.1348 0012429 152.7713 275.4316 12.53697890358996
PHASE 3B (AO-10)        
1 14129U 83058B   26153.31656221  .00000070  00000+0  00000+0 0  9999
2 14129  25.9022 222.0290 6015956 111.5768 320.3605  2.05871181295184
UOSAT 2 (UO-11)         
1 14781U 84021B   26156.13961409  .00001448  00000+0  15307-3 0  9994
2 14781  97.8051 121.8497 0006565 214.8285 145.2504 14.90753594255333
LUSAT (LO-19)           
1 20442U 90005G   26156.04219295  .00000140  00000+0  66761-4 0  9992
2 20442  98.8853 177.5128 0010571 239.0996 120.9149 14.34119465900652
EYESAT A (AO-27)        
1 22825U 93061C   26156.04287830  .00000133  00000+0  67637-4 0  9999
2 22825  98.6882 223.4603 0009287 131.4595 228.7387 14.30939060705268
ITAMSAT (IO-26)         
1 22826U 93061D   26156.02591198  .00000123  00000+0  63354-4 0  9994
2 22826  98.6830 223.3597 0009998 116.6870 243.5338 14.31365437705570
RADIO ROSTO (RS15)      
1 23439U 94085A   26156.05426580 -.00000048  00000+0 -15112-3 0  9993
2 23439  64.8185 322.8388 0155575   6.1185 354.1593 11.27583599294531
JAS-2 (FO-29)           
1 24278U 96046B   26156.03787250 -.00000027  00000+0  52727-5 0  9997
2 24278  98.5250   6.5738 0350681 127.8798 235.4612 13.53273637471520
TECHSAT 1B (GO-32)      
1 25397U 98043D   26155.98258492  .00000079  00000+0  54311-4 0  9999
2 25397  99.0064 148.4335 0000374 204.4139 155.7022 14.24426023449592
ISS (ZARYA)             
1 25544U 98067A   26155.74133726  .00008168  00000+0  15298-3 0  9992
2 25544  51.6329   1.7083 0007031 132.5880 227.5703 15.49603626569823
PCSAT (NO-44)           
1 26931U 01043C   26156.07604568  .00000165  00000+0  92638-4 0  9998
2 26931  67.0513 275.5959 0006111 264.1376  95.9029 14.31951716288713
SAUDISAT 1C (SO-50)     
1 27607U 02058C   26155.41047091  .00001212  00000+0  15984-3 0  9997
2 27607  64.5504 168.5155 0075504 264.8060  94.4426 14.83018633262563
CUTE-1 (CO-55)          
1 27844U 03031E   26154.54951729  .00000336  00000+0  16425-3 0  9994
2 27844  98.6736 163.2800 0008690 219.4250 140.6297 14.24327019189732
CUBESAT XI-IV (CO-57)   
1 27848U 03031J   26156.00709544  .00000283  00000+0  14351-3 0  9994
2 27848  98.6767 164.4416 0008401 235.3371 124.7016 14.23614257189641
MOZHAETS 4 (RS22)       
1 27939U 03042A   26156.19762920  .00000858  00000+0  14049-3 0  9996
2 27939  98.3466 340.2178 0010365 312.3674 136.7442 14.73444843213784
CUBESAT XI-V            
1 28895U 05043F   26155.96828464  .00001691  00000+0  27373-3 0  9991
2 28895  98.2974 311.3347 0012930 241.7427 118.2475 14.72598149 99957
CUTE-1.7+APD II (CO-65) 
1 32785U 08021C   26156.11712887  .00005944  00000+0  37629-3 0  9992
2 32785  97.8271 137.2864 0010589  74.0522 286.1872 15.09331596983371
SEEDS II (CO-66)        
1 32791U 08021J   26155.99110656  .00021364  00000+0  68611-3 0  9999
2 32791  97.7517 153.3111 0002846  38.3892 321.7551 15.32316594985429
YUBILEINY (RS30)        
1 32953U 08025A   26156.10723331  .00000045  00000+0  25190-3 0  9995
2 32953  82.5043   2.9561 0019376 340.9425  19.0928 12.43178951818199
KKS-1 (KISEKI)          
1 33499U 09002H   26156.04509963  .00001678  00000+0  21277-3 0  9998
2 33499  98.1193  78.2951 0007334 340.4565  19.6365 14.83092240934398
SWISSCUBE               
1 35932U 09051B   26154.27980436  .00001220  00000+0  25059-3 0  9992
2 35932  98.4045  61.9256 0005398 254.9932 105.0671 14.62453382887126
BEESAT-1                
1 35933U 09051C   26155.71955788  .00001047  00000+0  22006-3 0  9991
2 35933  98.3973  63.0518 0003911 267.5336  92.5417 14.61699990887367
ITUPSAT1                
1 35935U 09051E   26155.69953963  .00000958  00000+0  20796-3 0  9997
2 35935  98.4056  62.2366 0006134 280.9538  79.0971 14.60421767886916
XIWANG-1 (HOPE-1)       
1 36122U 09072B   26156.16002324  .00000004  00000+0  12740-3 0  9990
2 36122 100.4027 110.1849 0006779 262.1197  97.9147 13.16438348791422
O/OREOS (USA 219)       
1 37224U 10062C   26156.14141229  .00002983  00000+0  28734-3 0  9999
2 37224  71.9702 107.6232 0012355  89.4979 270.7607 14.93690973114847
JUGNU                   
1 37839U 11058B   26152.07859182  .00000456  00000+0  98509-4 0  9990
2 37839  19.9618  46.2876 0018499 258.1927 242.1590 14.13771859756742
SRMSAT                  
1 37841U 11058D   26155.28992141  .00000393  00000+0  69540-4 0  9995
2 37841  19.9702 137.5332 0011913  62.8275  26.7062 14.11572942755996
STRAND-1                
1 39090U 13009E   26156.01141279  .00000319  00000+0  12165-3 0  9999
2 39090  98.3919 336.5458 0007387 267.1306  92.9036 14.37155961695311
ZACUBE-1 (TSHEPISOSAT)  
1 39417U 13066B   26156.14240747  .00004989  00000+0  38812-3 0  9993
2 39417  97.8104 118.4142 0039897 290.2475  69.4462 15.01107591678924
GOMX-1                  
1 39430U 13066Q   26156.20130332  .00002210  00000+0  33542-3 0  9993
2 39430  97.6487 357.4201 0130011 115.5827 245.8884 14.69412373668154
